[{"OBJECT_NAME":"CROCUBE","OBJECT_ID":"2024-247T","EPOCH":"2026-04-05T00:16:20.157888","MEAN_MOTION":15.43418094,"ECCENTRICITY":0.0005083,"INCLINATION":44.9735,"RA_OF_ASC_NODE":310.3631,"ARG_OF_PERICENTER":240.7464,"MEAN_ANOMALY":119.2917,"EPHEMERIS_TYPE":0,"CLASSIFICATION_TYPE":"U","NORAD_CAT_ID":62394,"ELEMENT_SET_NO":999,"REV_AT_EPOCH":7202,"BSTAR":0.00087808243,"MEAN_MOTION_DOT":0.00039986,"MEAN_MOTION_DDOT":0},{"OBJECT_NAME":"FORESAIL-1 PRIME","OBJECT_ID":"2025-276DS","EPOCH":"2026-04-05T18:25:02.494272","MEAN_MOTION":15.18047594,"ECCENTRICITY":0.000268,"INCLINATION":97.423,"RA_OF_ASC_NODE":170.3882,"ARG_OF_PERICENTER":33.9265,"MEAN_ANOMALY":326.214,"EPHEMERIS_TYPE":0,"CLASSIFICATION_TYPE":"U","NORAD_CAT_ID":66778,"ELEMENT_SET_NO":999,"REV_AT_EPOCH":1941,"BSTAR":0.0003449,"MEAN_MOTION_DOT":6.957e-5,"MEAN_MOTION_DDOT":0},{"OBJECT_NAME":"KNACKSAT-2","OBJECT_ID":"1998-067XZ","EPOCH":"2026-04-05T19:39:15.499296","MEAN_MOTION":15.54247426,"ECCENTRICITY":0.001084,"INCLINATION":51.6317,"RA_OF_ASC_NODE":296.8195,"ARG_OF_PERICENTER":286.1763,"MEAN_ANOMALY":73.8034,"EPHEMERIS_TYPE":0,"CLASSIFICATION_TYPE":"U","NORAD_CAT_ID":67683,"ELEMENT_SET_NO":999,"REV_AT_EPOCH":900,"BSTAR":0.00071168,"MEAN_MOTION_DOT":0.00047225,"MEAN_MOTION_DDOT":0}]
